[{"OBJECT_NAME":"STARLINK-30331","OBJECT_ID":"2023-131J","EPOCH":"2026-03-09T10:06:52.396128","MEAN_MOTION":15.27577219,"ECCENTRICITY":0.00011851,"INCLINATION":43.0033,"RA_OF_ASC_NODE":100.9149,"ARG_OF_PERICENTER":268.4448,"MEAN_ANOMALY":91.6268,"EPHEMERIS_TYPE":0,"CLASSIFICATION_TYPE":"U","NORAD_CAT_ID":57740,"ELEMENT_SET_NO":999,"REV_AT_EPOCH":14073,"BSTAR":-5.5499444e-5,"MEAN_MOTION_DOT":-1.789e-5,"MEAN_MOTION_DDOT":0},{"OBJECT_NAME":"FENGYUN 1C DEB","OBJECT_ID":"1999-025BYD","EPOCH":"2026-03-02T20:37:52.103712","MEAN_MOTION":15.19437968,"ECCENTRICITY":0.00147498,"INCLINATION":98.2493,"RA_OF_ASC_NODE":301.6947,"ARG_OF_PERICENTER":10.832,"MEAN_ANOMALY":349.3227,"EPHEMERIS_TYPE":0,"CLASSIFICATION_TYPE":"U","NORAD_CAT_ID":31538,"ELEMENT_SET_NO":999,"REV_AT_EPOCH":68212,"BSTAR":0.0071136993,"MEAN_MOTION_DOT":0.00154158,"MEAN_MOTION_DDOT":0}]
